ASTROCAST-0402          
1 55109U 23001DE  26068.80661100  .00010930  00000+0  41835-3 0  9996
2 55109  97.5556 160.6821 0004209 216.6984 143.3966 15.26734153129364
STARLINK-31308          
1 59153U 24044B   26068.01372359  .00000726  00000+0  35921-4 0  9997
2 59153  43.0032  64.0106 0001482 280.6696  79.3989 15.27567770114048
